{
    "links": {
        "self": "http://www.neowsapp.com/rest/v1/neo/3838887?api_key=iIulBulltgU6a56xZRHN4H3l9WmuAYTsLGpBGhQ2"
    },
    "id": "3838887",
    "neo_reference_id": "3838887",
    "name": "(2019 DC2)",
    "designation": "2019 DC2",
    "nasa_jpl_url": "http://ssd.jpl.nasa.gov/sbdb.cgi?sstr=3838887",
    "absolute_magnitude_h": 25.5,
    "estimated_diameter": {
        "kilometers": {
            "estimated_diameter_min": 0.0211132445,
            "estimated_diameter_max": 0.0472106499
        },
        "meters": {
            "estimated_diameter_min": 21.113244479,
            "estimated_diameter_max": 47.2106498806
        },
        "miles": {
            "estimated_diameter_min": 0.0131191578,
            "estimated_diameter_max": 0.0293353287
        },
        "feet": {
            "estimated_diameter_min": 69.2691770164,
            "estimated_diameter_max": 154.8905885541
        }
    },
    "is_potentially_hazardous_asteroid": false,
    "close_approach_data": [
        {
            "close_approach_date": "2019-02-14",
            "close_approach_date_full": "2019-Feb-14 02:15",
            "epoch_date_close_approach": 1550110500000,
            "relative_velocity": {
                "kilometers_per_second": "7.1327582143",
                "kilometers_per_hour": "25677.9295715671",
                "miles_per_hour": "15955.2668496218"
            },
            "miss_distance": {
                "astronomical": "0.1161505161",
                "lunar": "45.1825507629",
                "kilometers": "17375869.807960707",
                "miles": "10796864.8413914766"
            },
            "orbiting_body": "Earth"
        }
    ],
    "orbital_data": {
        "orbit_id": "1",
        "orbit_determination_date": "2019-03-04 16:42:05",
        "first_observation_date": "2019-02-09",
        "last_observation_date": "2019-03-01",
        "data_arc_in_days": 20,
        "observations_used": 14,
        "orbit_uncertainty": "9",
        "minimum_orbit_intersection": ".115848",
        "jupiter_tisserand_invariant": "3.807",
        "epoch_osculation": "2458528.5",
        "eccentricity": ".4247903549389402",
        "semi_major_axis": "1.904774655889593",
        "inclination": "10.9030875856027",
        "ascending_node_longitude": "332.6406024856371",
        "orbital_period": "960.2047117216026",
        "perihelion_distance": "1.095644753735555",
        "perihelion_argument": "162.6869420441666",
        "aphelion_distance": "2.713904558043631",
        "perihelion_time": "2458519.048744016271",
        "mean_anomaly": "3.543465380462465",
        "mean_motion": ".3749200515320704",
        "equinox": "J2000",
        "orbit_class": {
            "orbit_class_type": "AMO",
            "orbit_class_description": "Near-Earth asteroid orbits similar to that of 1221 Amor",
            "orbit_class_range": "1.017 AU < q (perihelion) < 1.3 AU"
        }
    },
    "is_sentry_object": false
}